{
  "type": "FeatureCollection",
  "features": [
    {
      "type": "Feature",
      "properties": {
        "norad_id": 38709,
        "name": "EXACTVIEW-1 (ADS-1B)",
        "group": "resource",
        "lat": -17.72437468612407,
        "lon": -91.08795036293499,
        "alt_km": 821.2852925798907,
        "timestamp": "2025-12-09T11:33:54.457271+00:00",
        "meta_object_name": "EXACTVIEW-1 (ADS-1B)",
        "meta_object_id": "2012-039C",
        "meta_epoch": "2025-12-09T03:53:54.161088",
        "meta_mean_motion": 14.24905575,
        "meta_eccentricity": 0.001086,
        "meta_inclination": 98.9635,
        "meta_ra_of_asc_node": 91.4775,
        "meta_arg_of_pericenter": 4.5836,
        "meta_mean_anomaly": 355.544,
        "meta_ephemeris_type": 0,
        "meta_classification_type": "U",
        "meta_norad_cat_id": 38709,
        "meta_element_set_no": 999,
        "meta_rev_at_epoch": 69564,
        "meta_bstar": 0.00013629,
        "meta_mean_motion_dot": 2.72e-06,
        "meta_mean_motion_ddot": 0,
        "tle_line1": "1 38709U 12039C   25343.16243242  .00000272  00000+0  13629-3 0  9997",
        "tle_line2": "2 38709  98.9635  91.4775 0010860   4.5836 355.5440 14.24905575695641"
      },
      "geometry": {
        "type": "Point",
        "coordinates": [
          -91.08795036293499,
          -17.72437468612407
        ]
      }
    },
    {
      "type": "Feature",
      "properties": {
        "norad_id": 38755,
        "name": "SPOT 6",
        "group": "resource",
        "lat": -11.79402332204479,
        "lon": -133.39009150749547,
        "alt_km": 702.1483371834065,
        "timestamp": "2025-12-09T11:33:54.457282+00:00",
        "meta_object_name": "SPOT 6",
        "meta_object_id": "2012-047A",
        "meta_epoch": "2025-12-09T04:06:11.062368",
        "meta_mean_motion": 14.58597899,
        "meta_eccentricity": 0.0001074,
        "meta_inclination": 98.1574,
        "meta_ra_of_asc_node": 48.021,
        "meta_arg_of_pericenter": 98.1837,
        "meta_mean_anomaly": 261.9484,
        "meta_ephemeris_type": 0,
        "meta_classification_type": "U",
        "meta_norad_cat_id": 38755,
        "meta_element_set_no": 999,
        "meta_rev_at_epoch": 70535,
        "meta_bstar": 0.00012839,
        "meta_mean_motion_dot": 5.52e-06,
        "meta_mean_motion_ddot": 0,
        "tle_line1": "1 38755U 12047A   25343.17096137  .00000552  00000+0  12839-3 0  9990",
        "tle_line2": "2 38755  98.1574  48.0210 0001074  98.1837 261.9484 14.58597899705356"
      },
      "geometry": {
        "type": "Point",
        "coordinates": [
          -133.39009150749547,
          -11.79402332204479
        ]
      }
    },
    {
      "type": "Feature",
      "properties": {
        "norad_id": 39019,
        "name": "PLEIADES 1B",
        "group": "resource",
        "lat": 81.76259736663681,
        "lon": -40.330283593892304,
        "alt_km": 689.5499527146012,
        "timestamp": "2025-12-09T11:33:54.457292+00:00",
        "meta_object_name": "PLEIADES 1B",
        "meta_object_id": "2012-068A",
        "meta_epoch": "2025-12-09T04:33:50.727744",
        "meta_mean_motion": 14.58547353,
        "meta_eccentricity": 0.0001223,
        "meta_inclination": 98.1796,
        "meta_ra_of_asc_node": 55.8978,
        "meta_arg_of_pericenter": 82.1426,
        "meta_mean_anomaly": 277.9912,
        "meta_ephemeris_type": 0,
        "meta_classification_type": "U",
        "meta_norad_cat_id": 39019,
        "meta_element_set_no": 999,
        "meta_rev_at_epoch": 69315,
        "meta_bstar": 0.00012505,
        "meta_mean_motion_dot": 5.36e-06,
        "meta_mean_motion_ddot": 0,
        "tle_line1": "1 39019U 12068A   25343.19017046  .00000536  00000+0  12505-3 0  9993",
        "tle_line2": "2 39019  98.1796  55.8978 0001223  82.1426 277.9912 14.58547353693153"
      },
      "geometry": {
        "type": "Point",
        "coordinates": [
          -40.330283593892304,
          81.76259736663681
        ]
      }
    },
    {
      "type": "Feature",
      "properties": {
        "norad_id": 39030,
        "name": "GOKTURK 2",
        "group": "resource",
        "lat": 68.23769956258329,
        "lon": 25.07547939943765,
        "alt_km": 637.0011638489314,
        "timestamp": "2025-12-09T11:33:54.457303+00:00",
        "meta_object_name": "GOKTURK 2",
        "meta_object_id": "2012-073A",
        "meta_epoch": "2025-12-09T04:33:19.553760",
        "meta_mean_motion": 14.75282788,
        "meta_eccentricity": 9.12e-05,
        "meta_inclination": 97.6889,
        "meta_ra_of_asc_node": 185.0175,
        "meta_arg_of_pericenter": 98.0088,
        "meta_mean_anomaly": 262.1226,
        "meta_ephemeris_type": 0,
        "meta_classification_type": "U",
        "meta_norad_cat_id": 39030,
        "meta_element_set_no": 999,
        "meta_rev_at_epoch": 69649,
        "meta_bstar": 0.00013609,
        "meta_mean_motion_dot": 8.74e-06,
        "meta_mean_motion_ddot": 0,
        "tle_line1": "1 39030U 12073A   25343.18980965  .00000874  00000+0  13609-3 0  9991",
        "tle_line2": "2 39030  97.6889 185.0175 0000912  98.0088 262.1226 14.75282788696493"
      },
      "geometry": {
        "type": "Point",
        "coordinates": [
          25.07547939943765,
          68.23769956258329
        ]
      }
    },
    {
      "type": "Feature",
      "properties": {
        "norad_id": 39084,
        "name": "LANDSAT 8",
        "group": "resource",
        "lat": -78.70306309717296,
        "lon": 97.86586648303262,
        "alt_km": 710.634408033633,
        "timestamp": "2025-12-09T11:33:54.457313+00:00",
        "meta_object_name": "LANDSAT 8",
        "meta_object_id": "2013-008A",
        "meta_epoch": "2025-12-09T03:42:05.981760",
        "meta_mean_motion": 14.57108177,
        "meta_eccentricity": 0.0001117,
        "meta_inclination": 98.2076,
        "meta_ra_of_asc_node": 51.2805,
        "meta_arg_of_pericenter": 86.9354,
        "meta_mean_anomaly": 273.1972,
        "meta_ephemeris_type": 0,
        "meta_classification_type": "U",
        "meta_norad_cat_id": 39084,
        "meta_element_set_no": 999,
        "meta_rev_at_epoch": 67022,
        "meta_bstar": 0.00015388,
        "meta_mean_motion_dot": 6.48e-06,
        "meta_mean_motion_ddot": 0,
        "tle_line1": "1 39084U 13008A   25343.15423590  .00000648  00000+0  15388-3 0  9997",
        "tle_line2": "2 39084  98.2076  51.2805 0001117  86.9354 273.1972 14.57108177670223"
      },
      "geometry": {
        "type": "Point",
        "coordinates": [
          97.86586648303262,
          -78.70306309717296
        ]
      }
    },
    {
      "type": "Feature",
      "properties": {
        "norad_id": 39086,
        "name": "SARAL",
        "group": "resource",
        "lat": -8.7121436763928,
        "lon": -13.866278347107897,
        "alt_km": 785.9857874924037,
        "timestamp": "2025-12-09T11:33:54.457337+00:00",
        "meta_object_name": "SARAL",
        "meta_object_id": "2013-009A",
        "meta_epoch": "2025-12-09T03:58:59.674080",
        "meta_mean_motion": 14.32755021,
        "meta_eccentricity": 0.0002795,
        "meta_inclination": 98.5504,
        "meta_ra_of_asc_node": 167.1431,
        "meta_arg_of_pericenter": 115.5628,
        "meta_mean_anomaly": 244.5845,
        "meta_ephemeris_type": 0,
        "meta_classification_type": "U",
        "meta_norad_cat_id": 39086,
        "meta_element_set_no": 999,
        "meta_rev_at_epoch": 66839,
        "meta_bstar": 8.9772e-05,
        "meta_mean_motion_dot": 2.01e-06,
        "meta_mean_motion_ddot": 0,
        "tle_line1": "1 39086U 13009A   25343.16596845  .00000201  00000+0  89772-4 0  9999",
        "tle_line2": "2 39086  98.5504 167.1431 0002795 115.5628 244.5845 14.32755021668397"
      },
      "geometry": {
        "type": "Point",
        "coordinates": [
          -13.866278347107897,
          -8.7121436763928
        ]
      }
    },
    {
      "type": "Feature",
      "properties": {
        "norad_id": 39150,
        "name": "GAOFEN-1",
        "group": "resource",
        "lat": 5.95031523461597,
        "lon": -124.96859354449678,
        "alt_km": 630.7100657001702,
        "timestamp": "2025-12-09T11:33:54.457349+00:00",
        "meta_object_name": "GAOFEN-1",
        "meta_object_id": "2013-018A",
        "meta_epoch": "2025-12-09T04:16:30.673920",
        "meta_mean_motion": 14.76525386,
        "meta_eccentricity": 0.0017984,
        "meta_inclination": 97.9329,
        "meta_ra_of_asc_node": 53.9003,
        "meta_arg_of_pericenter": 154.0792,
        "meta_mean_anomaly": 206.1322,
        "meta_ephemeris_type": 0,
        "meta_classification_type": "U",
        "meta_norad_cat_id": 39150,
        "meta_element_set_no": 999,
        "meta_rev_at_epoch": 68020,
        "meta_bstar": 0.0002191,
        "meta_mean_motion_dot": 1.48e-05,
        "meta_mean_motion_ddot": 0,
        "tle_line1": "1 39150U 13018A   25343.17813280  .00001480  00000+0  21910-3 0  9996",
        "tle_line2": "2 39150  97.9329  53.9003 0017984 154.0792 206.1322 14.76525386680205"
      },
      "geometry": {
        "type": "Point",
        "coordinates": [
          -124.96859354449678,
          5.95031523461597
        ]
      }
    }
  ]
}